{
  "type": "FeatureCollection",
  "features": [
    {
      "type": "Feature",
      "properties": {
        "norad_id": 41866,
        "name": "GOES 16",
        "group": "weather",
        "lat": -0.03848832044720574,
        "lon": -65.20908336106572,
        "alt_km": 35774.79439882657,
        "timestamp": "2025-12-19T20:42:59.723690+00:00",
        "meta_object_name": "GOES 16",
        "meta_object_id": "2016-071A",
        "meta_epoch": "2025-12-19T05:57:50.126976",
        "meta_mean_motion": 1.00272227,
        "meta_eccentricity": 0.00030291,
        "meta_inclination": 0.0722,
        "meta_ra_of_asc_node": 103.4628,
        "meta_arg_of_pericenter": 161.7639,
        "meta_mean_anomaly": 167.6603,
        "meta_ephemeris_type": 0,
        "meta_classification_type": "U",
        "meta_norad_cat_id": 41866,
        "meta_element_set_no": 999,
        "meta_rev_at_epoch": 3329,
        "meta_bstar": 0,
        "meta_mean_motion_dot": -6.6e-07,
        "meta_mean_motion_ddot": 0,
        "tle_line1": "1 41866U 16071A   25353.24849684 -.00000066  00000+0  00000+0 0  9994",
        "tle_line2": "2 41866   0.0722 103.4628 0003029 161.7639 167.6603  1.00272227 33298"
      },
      "geometry": {
        "type": "Point",
        "coordinates": [
          -65.20908336106572,
          -0.03848832044720574
        ]
      }
    },
    {
      "type": "Feature",
      "properties": {
        "norad_id": 41882,
        "name": "FENGYUN 4A",
        "group": "weather",
        "lat": 1.849212353854962,
        "lon": 163.13886457750834,
        "alt_km": 35778.541293921655,
        "timestamp": "2025-12-19T20:42:59.723702+00:00",
        "meta_object_name": "FENGYUN 4A",
        "meta_object_id": "2016-077A",
        "meta_epoch": "2025-12-19T07:00:18.890784",
        "meta_mean_motion": 1.00266764,
        "meta_eccentricity": 0.00045063,
        "meta_inclination": 1.8653,
        "meta_ra_of_asc_node": 82.329,
        "meta_arg_of_pericenter": 142.9597,
        "meta_mean_anomaly": 91.6851,
        "meta_ephemeris_type": 0,
        "meta_classification_type": "U",
        "meta_norad_cat_id": 41882,
        "meta_element_set_no": 999,
        "meta_rev_at_epoch": 3312,
        "meta_bstar": 0,
        "meta_mean_motion_dot": -3.34e-06,
        "meta_mean_motion_ddot": 0,
        "tle_line1": "1 41882U 16077A   25353.29188531 -.00000334  00000+0  00000+0 0  9998",
        "tle_line2": "2 41882   1.8653  82.3290 0004506 142.9597  91.6851  1.00266764 33125"
      },
      "geometry": {
        "type": "Point",
        "coordinates": [
          163.13886457750834,
          1.849212353854962
        ]
      }
    },
    {
      "type": "Feature",
      "properties": {
        "norad_id": 41884,
        "name": "CYGFM05",
        "group": "weather",
        "lat": 10.835237773218823,
        "lon": 164.69165339151277,
        "alt_km": 419.72560346627415,
        "timestamp": "2025-12-19T20:42:59.723714+00:00",
        "meta_object_name": "CYGFM05",
        "meta_object_id": "2016-078A",
        "meta_epoch": "2025-12-19T06:05:36.718944",
        "meta_mean_motion": 15.47868032,
        "meta_eccentricity": 0.00107256,
        "meta_inclination": 34.9605,
        "meta_ra_of_asc_node": 4.5719,
        "meta_arg_of_pericenter": 240.726,
        "meta_mean_anomaly": 119.239,
        "meta_ephemeris_type": 0,
        "meta_classification_type": "U",
        "meta_norad_cat_id": 41884,
        "meta_element_set_no": 999,
        "meta_rev_at_epoch": 50077,
        "meta_bstar": 0.00027976145,
        "meta_mean_motion_dot": 0.00015017,
        "meta_mean_motion_ddot": 0,
        "tle_line1": "1 41884U 16078A   25353.25389721  .00015017  00000+0  27976-3 0  9999",
        "tle_line2": "2 41884  34.9605   4.5719 0010725 240.7260 119.2390 15.47868032500774"
      },
      "geometry": {
        "type": "Point",
        "coordinates": [
          164.69165339151277,
          10.835237773218823
        ]
      }
    },
    {
      "type": "Feature",
      "properties": {
        "norad_id": 41885,
        "name": "CYGFM04",
        "group": "weather",
        "lat": 32.341336031663246,
        "lon": 90.05393255744987,
        "alt_km": 415.05313578694404,
        "timestamp": "2025-12-19T20:42:59.723725+00:00",
        "meta_object_name": "CYGFM04",
        "meta_object_id": "2016-078B",
        "meta_epoch": "2025-12-19T06:20:03.920928",
        "meta_mean_motion": 15.50624747,
        "meta_eccentricity": 0.00097617,
        "meta_inclination": 34.9358,
        "meta_ra_of_asc_node": 339.0933,
        "meta_arg_of_pericenter": 265.9533,
        "meta_mean_anomaly": 94.0073,
        "meta_ephemeris_type": 0,
        "meta_classification_type": "U",
        "meta_norad_cat_id": 41885,
        "meta_element_set_no": 999,
        "meta_rev_at_epoch": 50095,
        "meta_bstar": 0.00030977194,
        "meta_mean_motion_dot": 0.0001834,
        "meta_mean_motion_ddot": 0,
        "tle_line1": "1 41885U 16078B   25353.26393427  .00018340  00000+0  30977-3 0  9996",
        "tle_line2": "2 41885  34.9358 339.0933 0009761 265.9533  94.0073 15.50624747500959"
      },
      "geometry": {
        "type": "Point",
        "coordinates": [
          90.05393255744987,
          32.341336031663246
        ]
      }
    },
    {
      "type": "Feature",
      "properties": {
        "norad_id": 41886,
        "name": "CYGFM02",
        "group": "weather",
        "lat": 11.513306780131566,
        "lon": 136.43267975605025,
        "alt_km": 410.94401564931104,
        "timestamp": "2025-12-19T20:42:59.723736+00:00",
        "meta_object_name": "CYGFM02",
        "meta_object_id": "2016-078C",
        "meta_epoch": "2025-12-19T06:08:16.944288",
        "meta_mean_motion": 15.52023647,
        "meta_eccentricity": 0.0011407,
        "meta_inclination": 34.9446,
        "meta_ra_of_asc_node": 337.3882,
        "meta_arg_of_pericenter": 266.0452,
        "meta_mean_anomaly": 93.8967,
        "meta_ephemeris_type": 0,
        "meta_classification_type": "U",
        "meta_norad_cat_id": 41886,
        "meta_element_set_no": 999,
        "meta_rev_at_epoch": 50108,
        "meta_bstar": 0.0002897568,
        "meta_mean_motion_dot": 0.00018049,
        "meta_mean_motion_ddot": 0,
        "tle_line1": "1 41886U 16078C   25353.25575167  .00018049  00000+0  28976-3 0  9991",
        "tle_line2": "2 41886  34.9446 337.3882 0011407 266.0452  93.8967 15.52023647501082"
      },
      "geometry": {
        "type": "Point",
        "coordinates": [
          136.43267975605025,
          11.513306780131566
        ]
      }
    },
    {
      "type": "Feature",
      "properties": {
        "norad_id": 41887,
        "name": "CYGFM01",
        "group": "weather",
        "lat": -21.678161556932043,
        "lon": -142.40892019098763,
        "alt_km": 415.73498222449325,
        "timestamp": "2025-12-19T20:42:59.723747+00:00",
        "meta_object_name": "CYGFM01",
        "meta_object_id": "2016-078D",
        "meta_epoch": "2025-12-19T05:50:39.834240",
        "meta_mean_motion": 15.48453572,
        "meta_eccentricity": 0.00103824,
        "meta_inclination": 34.9436,
        "meta_ra_of_asc_node": 6.9435,
        "meta_arg_of_pericenter": 233.3394,
        "meta_mean_anomaly": 126.6374,
        "meta_ephemeris_type": 0,
        "meta_classification_type": "U",
        "meta_norad_cat_id": 41887,
        "meta_element_set_no": 999,
        "meta_rev_at_epoch": 50071,
        "meta_bstar": 0.00028486021,
        "meta_mean_motion_dot": 0.00015609,
        "meta_mean_motion_ddot": 0,
        "tle_line1": "1 41887U 16078D   25353.24351660  .00015609  00000+0  28486-3 0  9996",
        "tle_line2": "2 41887  34.9436   6.9435 0010382 233.3394 126.6374 15.48453572500713"
      },
      "geometry": {
        "type": "Point",
        "coordinates": [
          -142.40892019098763,
          -21.678161556932043
        ]
      }
    },
    {
      "type": "Feature",
      "properties": {
        "norad_id": 41888,
        "name": "CYGFM08",
        "group": "weather",
        "lat": -29.76971154854271,
        "lon": -69.1977872587541,
        "alt_km": 413.005652776882,
        "timestamp": "2025-12-19T20:42:59.723758+00:00",
        "meta_object_name": "CYGFM08",
        "meta_object_id": "2016-078E",
        "meta_epoch": "2025-12-19T05:30:50.106240",
        "meta_mean_motion": 15.49675615,
        "meta_eccentricity": 0.00119959,
        "meta_inclination": 34.9468,
        "meta_ra_of_asc_node": 349.9489,
        "meta_arg_of_pericenter": 255.7772,
        "meta_mean_anomaly": 104.1618,
        "meta_ephemeris_type": 0,
        "meta_classification_type": "U",
        "meta_norad_cat_id": 41888,
        "meta_element_set_no": 999,
        "meta_rev_at_epoch": 50094,
        "meta_bstar": 0.00030070746,
        "meta_mean_motion_dot": 0.00017224,
        "meta_mean_motion_ddot": 0,
        "tle_line1": "1 41888U 16078E   25353.22974660  .00017224  00000+0  30071-3 0  9994",
        "tle_line2": "2 41888  34.9468 349.9489 0011995 255.7772 104.1618 15.49675615500949"
      },
      "geometry": {
        "type": "Point",
        "coordinates": [
          -69.1977872587541,
          -29.76971154854271
        ]
      }
    }
  ]
}